[
    {
        "Altitude(m)": 617710.6456705419,
        "Argument of Periapsis(deg)": 0.0,
        "Eccentricity": 0.0,
        "Inclination(deg)": 60.0,
        "Latitude(deg)": -41.10267641131034,
        "Longitude(deg)": 154.96658232589195,
        "Mean Anomaly(deg)": -49.09089999999994,
        "RAAN(deg)": 285.0,
        "Satellite Name": "Test1 1273",
        "Satellite Number": 1273,
        "Semi-Major Axis(m)": 6980739.136638005,
        "Time(s)": 0
    },
    {
        "Altitude(m)": 617517.9443249969,
        "Argument of Periapsis(deg)": 0.00010418945913296404,
        "Eccentricity": 0.0,
        "Inclination(deg)": 60.0,
        "Latitude(deg)": -40.636883844117136,
        "Longitude(deg)": 155.463376832113,
        "Mean Anomaly(deg)": -48.470793854538094,
        "RAAN(deg)": 284.9995799508602,
        "Satellite Name": "Test1 1273",
        "Satellite Number": 1273,
        "Semi-Major Axis(m)": 6980739.136638005,
        "Time(s)": 10
    }
]